[{"OBJECT_NAME":"SITRO-AIS 15","OBJECT_ID":"2024-199D","EPOCH":"2026-03-09T21:41:54.706560","MEAN_MOTION":14.9706426,"ECCENTRICITY":0.00074523,"INCLINATION":97.3312,"RA_OF_ASC_NODE":274.4424,"ARG_OF_PERICENTER":51.6231,"MEAN_ANOMALY":308.566,"EPHEMERIS_TYPE":0,"CLASSIFICATION_TYPE":"U","NORAD_CAT_ID":61738,"ELEMENT_SET_NO":999,"REV_AT_EPOCH":11696,"BSTAR":0.0003624053,"MEAN_MOTION_DOT":4.126e-5,"MEAN_MOTION_DDOT":0},{"OBJECT_NAME":"STARLINK-35913","OBJECT_ID":"2025-293B","EPOCH":"2026-03-09T19:04:56.072352","MEAN_MOTION":14.98325516,"ECCENTRICITY":0.00036107,"INCLINATION":70.001,"RA_OF_ASC_NODE":94.1909,"ARG_OF_PERICENTER":271.7545,"MEAN_ANOMALY":88.32,"EPHEMERIS_TYPE":0,"CLASSIFICATION_TYPE":"U","NORAD_CAT_ID":67004,"ELEMENT_SET_NO":999,"REV_AT_EPOCH":1490,"BSTAR":0.00023817162,"MEAN_MOTION_DOT":2.75e-5,"MEAN_MOTION_DDOT":0}]
